CCSDS_OMM_VERS = 2.0
CREATION_DATE  = 
ORIGINATOR     = 

OBJECT_NAME    = AMOS-17
OBJECT_ID      = 2019-050A
CENTER_NAME    = EARTH
REF_FRAME      = TEME
TIME_SYSTEM    = UTC
MEAN_ELEMENT_THEORY = SGP/SGP4

EPOCH          = 2026-06-01T13:46:38.002944
MEAN_MOTION    = 1.00272846
ECCENTRICITY   = .00017743
INCLINATION    = 0.0152
RA_OF_ASC_NODE = 327.5504
ARG_OF_PERICENTER = 123.6002
MEAN_ANOMALY   = 22.5548

EPHEMERIS_TYPE = 0
CLASSIFICATION_TYPE = U
NORAD_CAT_ID   = 44479
ELEMENT_SET_NO = 999
REV_AT_EPOCH   = 2503
BSTAR          = 0
MEAN_MOTION_DOT = .122E-5
MEAN_MOTION_DDOT = 0

