1 44479U 19050A   26152.57405096  .00000122  00000+0  00000+0 0  9998
2 44479   0.0152 327.5504 0001774 123.6002  22.5548  1.00272846 25033
